{"type":"FeatureCollection","features":[{"type":"Feature","properties":{"name":"Doha","capital":true},"geometry":{"type":"Point","coordinates":[51.531,25.286]}},{"type":"Feature","properties":{"name":"Lusail","capital":false},"geometry":{"type":"Point","coordinates":[51.507,25.421]}},{"type":"Feature","properties":{"name":"Al Wakrah","capital":false},"geometry":{"type":"Point","coordinates":[51.604,25.171]}},{"type":"Feature","properties":{"name":"Al Rayyan","capital":false},"geometry":{"type":"Point","coordinates":[51.424,25.292]}},{"type":"Feature","properties":{"name":"Umm Salal","capital":false},"geometry":{"type":"Point","coordinates":[51.405,25.415]}},{"type":"Feature","properties":{"name":"Al Khor","capital":false},"geometry":{"type":"Point","coordinates":[51.505,25.684]}},{"type":"Feature","properties":{"name":"Mesaieed","capital":false},"geometry":{"type":"Point","coordinates":[51.55,24.99]}},{"type":"Feature","properties":{"name":"Dukhan","capital":false},"geometry":{"type":"Point","coordinates":[50.784,25.43]}},{"type":"Feature","properties":{"name":"Abu Samra","capital":false},"geometry":{"type":"Point","coordinates":[50.842,24.752]}},{"type":"Feature","properties":{"name":"Al Ruwais","capital":false},"geometry":{"type":"Point","coordinates":[51.215,26.13]}}]}